[{"OBJECT_NAME":"STARLINK-5668","OBJECT_ID":"2023-013V","EPOCH":"2026-03-09T01:07:14.318400","MEAN_MOTION":15.02534619,"ECCENTRICITY":0.00011645,"INCLINATION":43.0045,"RA_OF_ASC_NODE":303.7464,"ARG_OF_PERICENTER":265.9049,"MEAN_ANOMALY":94.1661,"EPHEMERIS_TYPE":0,"CLASSIFICATION_TYPE":"U","NORAD_CAT_ID":55350,"ELEMENT_SET_NO":999,"REV_AT_EPOCH":17161,"BSTAR":-2.663132e-6,"MEAN_MOTION_DOT":-2.4e-6,"MEAN_MOTION_DDOT":0},{"OBJECT_NAME":"QPS-SAR-11 (YAMATSUMI-I)","OBJECT_ID":"2025-125A","EPOCH":"2026-03-09T06:07:28.619904","MEAN_MOTION":15.00627459,"ECCENTRICITY":0.00100447,"INCLINATION":42.0098,"RA_OF_ASC_NODE":22.3823,"ARG_OF_PERICENTER":210.04,"MEAN_ANOMALY":149.985,"EPHEMERIS_TYPE":0,"CLASSIFICATION_TYPE":"U","NORAD_CAT_ID":64340,"ELEMENT_SET_NO":999,"REV_AT_EPOCH":4060,"BSTAR":0.0005738522,"MEAN_MOTION_DOT":7.204e-5,"MEAN_MOTION_DDOT":0}]
